NORAD_CAT_ID,OBJECT_NAME,OBJECT_TYPE,EPOCH,MEAN_MOTION,ECCENTRICITY,INCLINATION,RA_OF_ASC_NODE,ARG_OF_PERICENTER,MEAN_ANOMALY,BSTAR,MEAN_MOTION_DOT,MEAN_MOTION_DDOT,TLE_LINE0,TLE_LINE1,TLE_LINE2,SEMIMAJOR_AXIS,PERIOD,APOGEE,PERIGEE,DECAYED
52116.0,STARLINK-3735,PAYLOAD,2023-09-25 09:12:12,15.08850252,0.0001387,53.2166,142.7937,94.6964,265.4186,0.00021714,3.17e-05,0.0,0 STARLINK-3735,1 52116U 22029AE  23268.38347334  .00003170  00000-0  21714-3 0  9995,2 52116  53.2166 142.7937 0001387  94.6964 265.4186 15.08850252 85472,6917.849,95.437,540.674,538.755,0.0
52116.0,STARLINK-3735,PAYLOAD,2023-09-25 21:55:16,15.08857944,0.0001315,53.2159,140.4167,93.3103,266.8039,0.00040493,6.166e-05,0.0,0 STARLINK-3735,1 52116U 22029AE  23268.91339088  .00006166  00000-0  40493-3 0  9994,2 52116  53.2159 140.4167 0001315  93.3103 266.8039 15.08857944 85552,6917.826,95.436,540.6,538.781,0.0
52116.0,STARLINK-3735,PAYLOAD,2023-09-26 20:10:41,15.08839522,0.000126,53.2161,136.2544,107.6724,252.4406,3.5396e-05,2.75e-06,0.0,0 STARLINK-3735,1 52116U 22029AE  23269.84075798  .00000275  00000-0  35396-4 0  9994,2 52116  53.2161 136.2544 0001260 107.6724 252.4406 15.08839522 85690,6917.882,95.438,540.619,538.875,0.0
52116.0,STARLINK-3735,PAYLOAD,2023-09-27 00:56:50,15.08838481,0.0001385,53.2161,135.3619,113.7779,246.3359,1.8377e-05,5e-08,0.0,0 STARLINK-3735,1 52116U 22029AE  23270.03947900  .00000005  00000-0  18377-4 0  9991,2 52116  53.2161 135.3619 0001385 113.7779 246.3359 15.08838481 85725,6917.885,95.438,540.708,538.792,0.0
52116.0,STARLINK-3735,PAYLOAD,2023-09-27 18:26:06,15.08827943,0.0001432,53.217,132.0889,117.9023,242.2114,-6.7825e-05,-1.367e-05,0.0,0 STARLINK-3735,1 52116U 22029AE  23270.76812780 -.00001367  00000-0 -67825-4 0  9994,2 52116  53.2170 132.0889 0001432 117.9023 242.2114 15.08827943 85836,6917.917,95.438,540.773,538.792,0.0
52116.0,STARLINK-3735,PAYLOAD,2023-09-28 00:47:39,15.08826011,0.0001484,53.2163,130.8985,126.3174,233.7955,0.00020661,3.001e-05,0.0,0 STARLINK-3735,1 52116U 22029AE  23271.03309135  .00003001  00000-0  20661-3 0  9991,2 52116  53.2163 130.8985 0001484 126.3174 233.7955 15.08826011 85876,6917.923,95.438,540.815,538.762,0.0
52116.0,STARLINK-3735,PAYLOAD,2023-09-28 18:16:53,15.08840089,0.0001313,53.2163,127.6279,114.8548,245.258,0.00026498,3.932e-05,0.0,0 STARLINK-3735,1 52116U 22029AE  23271.76172691  .00003932  00000-0  26498-3 0  9993,2 52116  53.2163 127.6279 0001313 114.8548 245.2580 15.08840089 85989,6917.88,95.438,540.653,538.837,0.0
52116.0,STARLINK-3735,PAYLOAD,2023-09-28 21:27:39,15.08843242,0.00013,53.2164,127.0331,112.6258,247.4871,0.00030217,4.525e-05,0.0,0 STARLINK-3735,1 52116U 22029AE  23271.89420584  .00004525  00000-0  30217-3 0  9997,2 52116  53.2164 127.0331 0001300 112.6258 247.4871 15.08843242 86008,6917.87,95.437,540.635,538.836,0.0
52116.0,STARLINK-3735,PAYLOAD,2023-09-29 00:38:25,15.08845305,0.0001307,53.2163,126.4383,113.3659,246.7471,0.00031577,4.742e-05,0.0,0 STARLINK-3735,1 52116U 22029AE  23272.02668489  .00004742  00000-0  31577-3 0  9992,2 52116  53.2163 126.4383 0001307 113.3659 246.7471 15.08845305 86029,6917.864,95.437,540.633,538.825,0.0
52116.0,STARLINK-3735,PAYLOAD,2023-09-29 19:43:03,15.08846054,0.0001392,53.2163,122.8687,117.8097,242.3037,0.00014887,2.083e-05,0.0,0 STARLINK-3735,1 52116U 22029AE  23272.82156355  .00002083  00000-0  14887-3 0  9995,2 52116  53.2163 122.8687 0001392 117.8097 242.3037 15.08846054 86140,6917.862,95.437,540.69,538.764,0.0
52116.0,STARLINK-3735,PAYLOAD,2023-09-30 17:58:27,15.08835041,0.0001085,53.2151,118.712,95.5825,264.5291,-0.00016245,-2.872e-05,0.0,0 STARLINK-3735,1 52116U 22029AE  23273.74892880 -.00002872  00000-0 -16245-3 0  9995,2 52116  53.2151 118.7120 0001085  95.5825 264.5291 15.08835041 86280,6917.896,95.438,540.511,539.01,0.0
52116.0,STARLINK-3735,PAYLOAD,2023-10-01 06:41:32,15.0884617,0.0001162,53.2153,116.3322,86.7015,273.411,3.8488e-05,3.25e-06,0.0,0 STARLINK-3735,1 52116U 22029AE  23274.27884344  .00000325  00000-0  38488-4 0  9993,2 52116  53.2153 116.3322 0001162  86.7015 273.4110 15.08846170 86362,6917.862,95.437,540.53,538.923,0.0
52116.0,STARLINK-3735,PAYLOAD,2023-10-01 13:03:04,15.08843956,0.0001209,53.2156,115.141,86.0273,274.0858,0.00011604,1.56e-05,0.0,0 STARLINK-3735,1 52116U 22029AE  23274.54380426  .00001560  00000-0  11604-3 0  9997,2 52116  53.2156 115.1410 0001209  86.0273 274.0858 15.08843956 86401,6917.868,95.437,540.57,538.897,0.0
52116.0,STARLINK-3735,PAYLOAD,2023-10-01 21:00:00,15.08852288,0.0001218,53.2154,113.6541,85.051,275.0621,0.00020858,3.034e-05,0.0,0 STARLINK-3735,1 52116U 22029AE  23274.87500006  .00003034  00000-0  20858-3 0  9990,2 52116  53.2154 113.6541 0001218  85.0510 275.0621 15.08852288 86452,6917.843,95.437,540.55,538.865,0.0
52116.0,STARLINK-3735,PAYLOAD,2023-10-02 20:50:47,15.08840947,0.0001384,53.2157,109.1938,83.2555,276.8595,7.587e-05,9.2e-06,0.0,0 STARLINK-3735,1 52116U 22029AE  23275.86860640  .00000920  00000-0  75870-4 0  9999,2 52116  53.2157 109.1938 0001384  83.2555 276.8595 15.08840947 86603,6917.877,95.437,540.7,538.785,0.0
52116.0,STARLINK-3735,PAYLOAD,2023-10-03 12:44:39,15.08839278,0.0001332,53.2151,106.2201,82.3645,277.7498,3.1184e-05,2.08e-06,0.0,0 STARLINK-3735,1 52116U 22029AE  23276.53100805  .00000208  00000-0  31184-4 0  9993,2 52116  53.2151 106.2201 0001332  82.3645 277.7498 15.08839278 86709,6917.883,95.438,540.669,538.826,0.0
52116.0,STARLINK-3735,PAYLOAD,2023-10-03 22:16:57,15.08846554,0.0001331,53.2153,104.4349,86.7015,273.4129,0.00011769,1.586e-05,0.0,0 STARLINK-3735,1 52116U 22029AE  23276.92844466  .00001586  00000-0  11769-3 0  9990,2 52116  53.2153 104.4349 0001331  86.7015 273.4129 15.08846554 86767,6917.86,95.437,540.646,538.805,0.0
52116.0,STARLINK-3735,PAYLOAD,2023-10-04 12:35:26,15.08838894,0.000137,53.2151,101.7575,92.0589,268.056,0.00031652,4.753e-05,0.0,0 STARLINK-3735,1 52116U 22029AE  23277.52460954  .00004753  00000-0  31652-3 0  9995,2 52116  53.2151 101.7575 0001370  92.0589 268.0560 15.08838894 86852,6917.884,95.438,540.697,538.801,0.0
52116.0,STARLINK-3735,PAYLOAD,2023-10-04 18:56:58,15.08846677,0.0001362,53.2154,100.5688,88.0904,272.0244,0.00037273,5.65e-05,0.0,0 STARLINK-3735,1 52116U 22029AE  23277.78956582  .00005650  00000-0  37273-3 0  9992,2 52116  53.2154 100.5688 0001362  88.0904 272.0244 15.08846677 86890,6917.86,95.437,540.667,538.783,0.0
52116.0,STARLINK-3735,PAYLOAD,2023-10-05 18:47:45,15.0883939,0.0001279,53.2165,96.1078,88.3892,271.7246,6.9273e-05,8.15e-06,0.0,0 STARLINK-3735,1 52116U 22029AE  23278.78316808  .00000815  00000-0  69273-4 0  9998,2 52116  53.2165  96.1078 0001279  88.3892 271.7246 15.08839390 87041,6917.882,95.438,540.632,538.862,0.0
52116.0,STARLINK-3735,PAYLOAD,2023-10-06 12:17:00,15.08838665,0.000129,53.2165,92.8381,87.9935,272.1205,-1.2569e-05,-4.88e-06,0.0,0 STARLINK-3735,1 52116U 22029AE  23279.51181242 -.00000488  00000-0 -12569-4 0  9996,2 52116  53.2165  92.8381 0001290  87.9935 272.1205 15.08838665 87153,6917.884,95.438,540.642,538.857,0.0
52116.0,STARLINK-3735,PAYLOAD,2023-10-06 18:38:32,15.08844084,0.0001366,53.2171,91.6503,78.3085,281.806,3.2267e-05,2.26e-06,0.0,0 STARLINK-3735,1 52116U 22029AE  23279.77676599  .00000226  00000-0  32267-4 0  9993,2 52116  53.2171  91.6503 0001366  78.3085 281.8060 15.08844084 87199,6917.868,95.437,540.678,538.788,0.0
52116.0,STARLINK-3735,PAYLOAD,2023-10-07 04:10:51,15.08846032,0.0001318,53.2175,89.8665,88.8617,271.2526,1.8608e-06,-2.58e-06,0.0,0 STARLINK-3735,1 52116U 22029AE  23280.17420530 -.00000258  00000-0  18608-5 0  9991,2 52116  53.2175  89.8665 0001318  88.8617 271.2526 15.08846032 87257,6917.862,95.437,540.639,538.815,0.0
52116.0,STARLINK-3735,PAYLOAD,2023-10-07 12:07:48,15.08706492,0.00021,53.2184,88.3806,87.332,272.7913,0.0018643,0.00029399,0.0,0 STARLINK-3735,1 52116U 22029AE  23280.50542786  .00029399  00000-0  18643-2 0  9998,2 52116  53.2184  88.3806 0002100  87.3320 272.7913 15.08706492 87300,6918.288,95.446,541.606,538.701,0.0
52116.0,STARLINK-3735,PAYLOAD,2023-10-07 18:29:22,15.08710958,0.0002106,53.2188,87.1914,85.7424,274.3808,0.0019292,0.0003044,0.0,0 STARLINK-3735,1 52116U 22029AE  23280.77040452  .00030440  00000-0  19292-2 0  9990,2 52116  53.2188  87.1914 0002106  85.7424 274.3808 15.08710958 87341,6918.275,95.446,541.597,538.683,0.0
52116.0,STARLINK-3735,PAYLOAD,2023-10-08 11:58:35,15.0883195,0.000151,53.2193,83.9207,101.7107,258.4054,9.2763e-05,1.188e-05,0.0,0 STARLINK-3735,1 52116U 22029AE  23281.49901894  .00001188  00000-0  92763-4 0  9999,2 52116  53.2193  83.9207 0001510 101.7107 258.4054 15.08831950 87455,6917.905,95.438,540.815,538.725,0.0
52116.0,STARLINK-3735,PAYLOAD,2023-10-08 18:20:07,15.08843035,0.0001677,53.2191,82.7313,106.0981,254.0195,5.01e-05,5.09e-06,0.0,0 STARLINK-3735,1 52116U 22029AE  23281.76397292  .00000509  00000-0  50100-4 0  9995,2 52116  53.2191  82.7313 0001677 106.0981 254.0195 15.08843035 87499,6917.871,95.437,540.896,538.576,0.0
52116.0,STARLINK-3735,PAYLOAD,2023-10-08 19:55:30,15.0884553,0.0001322,53.218,82.432,93.9581,266.1562,0.00010478,1.38e-05,0.0,0 STARLINK-3735,1 52116U 22029AE  23281.83021005  .00001380  00000-0  10478-3 0  9990,2 52116  53.2180  82.4320 0001322  93.9581 266.1562 15.08845530 87505,6917.863,95.437,540.643,538.814,0.0
52116.0,STARLINK-3735,PAYLOAD,2023-10-09 18:10:54,15.08847681,0.0001393,53.2183,78.2674,88.0557,272.0595,0.00011944,1.614e-05,0.0,0 STARLINK-3735,1 52116U 22029AE  23282.75756948  .00001614  00000-0  11944-3 0  9992,2 52116  53.2183  78.2674 0001393  88.0557 272.0595 15.08847681 87645,6917.857,95.437,540.686,538.758,0.0
52116.0,STARLINK-3735,PAYLOAD,2023-10-10 10:04:45,15.0884695,0.0001537,53.2185,75.2959,86.891,273.2258,0.00010594,1.399e-05,0.0,0 STARLINK-3735,1 52116U 22029AE  23283.41997052  .00001399  00000-0  10594-3 0  9999,2 52116  53.2185  75.2959 0001537  86.8910 273.2258 15.08846950 87747,6917.859,95.437,540.787,538.661,0.0
